{"fetched_at":"2026-07-07T18:29:06.539Z","source":"https://celestrak.org/NORAD/elements/gp.php?GROUP=oneweb&FORMAT=JSON","constellation":"oneweb","records":[{"OBJECT_NAME":"ONEWEB-0229","OBJECT_ID":"2021-045N","EPOCH":"2026-07-06T05:28:36.050592","CLASSIFICATION_TYPE":"U","MEAN_MOTION":13.15548033,"ECCENTRICITY":0.00019419,"INCLINATION":87.9,"RA_OF_ASC_NODE":255.3982,"ARG_OF_PERICENTER":100.9562,"MEAN_ANOMALY":259.1787,"EPHEMERIS_TYPE":0,"NORAD_CAT_ID":48779,"ELEMENT_SET_NO":999,"REV_AT_EPOCH":24691,"BSTAR":-0.00029606859,"MEAN_MOTION_DOT":-9.9e-7,"MEAN_MOTION_DDOT":0},{"OBJECT_NAME":"ONEWEB-0228","OBJECT_ID":"2021-045P","EPOCH":"2026-07-06T06:16:43.313088","CLASSIFICATION_TYPE":"U","MEAN_MOTION":13.1554871,"ECCENTRICITY":0.00020265,"INCLINATION":87.9007,"RA_OF_ASC_NODE":255.3852,"ARG_OF_PERICENTER":101.143,"MEAN_ANOMALY":258.9929,"EPHEMERIS_TYPE":0,"NORAD_CAT_ID":48780,"ELEMENT_SET_NO":999,"REV_AT_EPOCH":24683,"BSTAR":0.00034139972,"MEAN_MOTION_DOT":0.00000141,"MEAN_MOTION_DDOT":0},{"OBJECT_NAME":"ONEWEB-0232","OBJECT_ID":"2021-045Q","EPOCH":"2026-07-07T03:34:17.253120","CLASSIFICATION_TYPE":"U","MEAN_MOTION":13.15547889,"ECCENTRICITY":0.0002167,"INCLINATION":87.9001,"RA_OF_ASC_NODE":255.209,"ARG_OF_PERICENTER":100.0894,"MEAN_ANOMALY":260.0481,"EPHEMERIS_TYPE":0,"NORAD_CAT_ID":48781,"ELEMENT_SET_NO":999,"REV_AT_EPOCH":24727,"BSTAR":-0.00017217,"MEAN_MOTION_DOT":-5.2e-7,"MEAN_MOTION_DDOT":0},{"OBJECT_NAME":"ONEWEB-0231","OBJECT_ID":"2021-045R","EPOCH":"2026-07-06T05:08:03.698880","CLASSIFICATION_TYPE":"U","MEAN_MOTION":13.1554753,"ECCENTRICITY":0.00020984,"INCLINATION":87.8997,"RA_OF_ASC_NODE":255.4072,"ARG_OF_PERICENTER":105.6966,"MEAN_ANOMALY":254.4396,"EPHEMERIS_TYPE":0,"NORAD_CAT_ID":48782,"ELEMENT_SET_NO":999,"REV_AT_EPOCH":24684,"BSTAR":-0.00014155885,"MEAN_MOTION_DOT":-4e-7,"MEAN_MOTION_DDOT":0},{"OBJECT_NAME":"ONEWEB-0234","OBJECT_ID":"2021-045S","EPOCH":"2026-07-07T03:56:54.136608","CLASSIFICATION_TYPE":"U","MEAN_MOTION":13.15547295,"ECCENTRICITY":0.0002859,"INCLINATION":87.8998,"RA_OF_ASC_NODE":255.2,"ARG_OF_PERICENTER":93.3097,"MEAN_ANOMALY":266.836,"EPHEMERIS_TYPE":0,"NORAD_CAT_ID":48783,"ELEMENT_SET_NO":999,"REV_AT_EPOCH":24710,"BSTAR":0.00022979,"MEAN_MOTION_DOT":9.9e-7,"MEAN_MOTION_DDOT":0},{"OBJECT_NAME":"ONEWEB-0238","OBJECT_ID":"2021-045T","EPOCH":"2026-07-07T03:57:16.954848","CLASSIFICATION_TYPE":"U","MEAN_MOTION":13.15548386,"ECCENTRICITY":0.000247,"INCLINATION":87.9001,"RA_OF_ASC_NODE":255.1957,"ARG_OF_PERICENTER":95.7101,"MEAN_ANOMALY":264.4311,"EPHEMERIS_TYPE":0,"NORAD_CAT_ID":48784,"ELEMENT_SET_NO":999,"REV_AT_EPOCH":24700,"BSTAR":0.00027512,"MEAN_MOTION_DOT":0.00000116,"MEAN_MOTION_DDOT":0},{"OBJECT_NAME":"ONEWEB-0240","OBJECT_ID":"2021-045U","EPOCH":"2026-07-07T04:27:54.235296","CLASSIFICATION_TYPE":"U","MEAN_MOTION":13.15549129,"ECCENTRICITY":0.0002262,"INCLINATION":87.9004,"RA_OF_ASC_NODE":255.2009,"ARG_OF_PERICENTER":105.3352,"MEAN_ANOMALY":254.8028,"EPHEMERIS_TYPE":0,"NORAD_CAT_ID":48785,"ELEMENT_SET_NO":999,"REV_AT_EPOCH":24703,"BSTAR":0.00037146,"MEAN_MOTION_DOT":0.00000153,"MEAN_MOTION_DDOT":0},{"OBJECT_NAME":"ONEWEB-0246","OBJECT_ID":"2021-045V","EPOCH":"2026-07-06T06:25:38.640576","CLASSIFICATION_TYPE":"U","MEAN_MOTION":13.15547521,"ECCENTRICITY":0.00019431,"INCLINATION":87.9003,"RA_OF_ASC_NODE":255.3879,"ARG_OF_PERICENTER":100.3493,"MEAN_ANOMALY":259.7856,"EPHEMERIS_TYPE":0,"NORAD_CAT_ID":48786,"ELEMENT_SET_NO":999,"REV_AT_EPOCH":24678,"BSTAR":0.00015748179,"MEAN_MOTION_DOT":7.2e-7,"MEAN_MOTION_DDOT":0},{"OBJECT_NAME":"ONEWEB-0210","OBJECT_ID":"2021-045W","EPOCH":"2026-07-07T12:51:01.177056","CLASSIFICATION_TYPE":"U","MEAN_MOTION":13.15548655,"ECCENTRICITY":0.0001543,"INCLINATION":87.9001,"RA_OF_ASC_NODE":255.1328,"ARG_OF_PERICENTER":121.0481,"MEAN_ANOMALY":239.0801,"EPHEMERIS_TYPE":0,"NORAD_CAT_ID":48787,"ELEMENT_SET_NO":999,"REV_AT_EPOCH":24699,"BSTAR":0.00019099,"MEAN_MOTION_DOT":8.5e-7,"MEAN_MOTION_DDOT":0},{"OBJECT_NAME":"ONEWEB-0214","OBJECT_ID":"2021-045X","EPOCH":"2026-07-07T03:55:56.068896","CLASSIFICATION_TYPE":"U","MEAN_MOTION":13.15547616,"ECCENTRICITY":0.0001703,"INCLINATION":87.9,"RA_OF_ASC_NODE":255.2038,"ARG_OF_PERICENTER":97.3385,"MEAN_ANOMALY":262.7939,"EPHEMERIS_TYPE":0,"NORAD_CAT_ID":48788,"ELEMENT_SET_NO":999,"REV_AT_EPOCH":24691,"BSTAR":-0.00065663,"MEAN_MOTION_DOT":-0.00000234,"MEAN_MOTION_DDOT":0},{"OBJECT_NAME":"ONEWEB-0221","OBJECT_ID":"2021-045Y","EPOCH":"2026-07-07T04:06:14.088960","CLASSIFICATION_TYPE":"U","MEAN_MOTION":13.1554777,"ECCENTRICITY":0.0002075,"INCLINATION":87.9,"RA_OF_ASC_NODE":255.2108,"ARG_OF_PERICENTER":105.4295,"MEAN_ANOMALY":254.7065,"EPHEMERIS_TYPE":0,"NORAD_CAT_ID":48789,"ELEMENT_SET_NO":999,"REV_AT_EPOCH":24700,"BSTAR":0.00048594,"MEAN_MOTION_DOT":0.00000196,"MEAN_MOTION_DDOT":0},{"OBJECT_NAME":"ONEWEB-0213","OBJECT_ID":"2021-045Z","EPOCH":"2026-07-07T03:50:15.660672","CLASSIFICATION_TYPE":"U","MEAN_MOTION":13.15548187,"ECCENTRICITY":0.0001971,"INCLINATION":87.9,"RA_OF_ASC_NODE":255.216,"ARG_OF_PERICENTER":107.5034,"MEAN_ANOMALY":252.6312,"EPHEMERIS_TYPE":0,"NORAD_CAT_ID":48790,"ELEMENT_SET_NO":999,"REV_AT_EPOCH":24706,"BSTAR":0.00016372,"MEAN_MOTION_DOT":7.4e-7,"MEAN_MOTION_DDOT":0},{"OBJECT_NAME":"ONEWEB-0212","OBJECT_ID":"2021-045AA","EPOCH":"2026-07-07T03:17:08.725056","CLASSIFICATION_TYPE":"U","MEAN_MOTION":13.15547103,"ECCENTRICITY":0.000211,"INCLINATION":87.9001,"RA_OF_ASC_NODE":255.2149,"ARG_OF_PERICENTER":98.887,"MEAN_ANOMALY":261.2499,"EPHEMERIS_TYPE":0,"NORAD_CAT_ID":48791,"ELEMENT_SET_NO":999,"REV_AT_EPOCH":24705,"BSTAR":-0.00029057,"MEAN_MOTION_DOT":-9.7e-7,"MEAN_MOTION_DDOT":0},{"OBJECT_NAME":"ONEWEB-0227","OBJECT_ID":"2021-045AB","EPOCH":"2026-07-06T05:21:45.339552","CLASSIFICATION_TYPE":"U","MEAN_MOTION":13.155479,"ECCENTRICITY":0.0002065,"INCLINATION":87.9001,"RA_OF_ASC_NODE":255.3973,"ARG_OF_PERICENTER":101.4821,"MEAN_ANOMALY":258.6541,"EPHEMERIS_TYPE":0,"NORAD_CAT_ID":48792,"ELEMENT_SET_NO":999,"REV_AT_EPOCH":24688,"BSTAR":-0.00039233312,"MEAN_MOTION_DOT":-0.00000135,"MEAN_MOTION_DDOT":0},{"OBJECT_NAME":"ONEWEB-0226","OBJECT_ID":"2021-045AC","EPOCH":"2026-07-07T03:06:53.742816","CLASSIFICATION_TYPE":"U","MEAN_MOTION":13.15547617,"ECCENTRICITY":0.0001895,"INCLINATION":87.8999,"RA_OF_ASC_NODE":255.2212,"ARG_OF_PERICENTER":105.0025,"MEAN_ANOMALY":255.1315,"EPHEMERIS_TYPE":0,"NORAD_CAT_ID":48793,"ELEMENT_SET_NO":999,"REV_AT_EPOCH":24697,"BSTAR":-0.00016329,"MEAN_MOTION_DOT":-4.9e-7,"MEAN_MOTION_DDOT":0},{"OBJECT_NAME":"ONEWEB-0224","OBJECT_ID":"2021-045AD","EPOCH":"2026-07-07T04:03:57.328128","CLASSIFICATION_TYPE":"U","MEAN_MOTION":13.15548306,"ECCENTRICITY":0.0002923,"INCLINATION":87.899,"RA_OF_ASC_NODE":255.2463,"ARG_OF_PERICENTER":106.0802,"MEAN_ANOMALY":254.065,"EPHEMERIS_TYPE":0,"NORAD_CAT_ID":48794,"ELEMENT_SET_NO":999,"REV_AT_EPOCH":24690,"BSTAR":0.00046763,"MEAN_MOTION_DOT":0.00000189,"MEAN_MOTION_DDOT":0}]}
