ONEWEB-0229             
1 48779U 21045N   26187.22819503 -.00000099  00000+0 -29607-3 0  9997
2 48779  87.9000 255.3982 0001941 100.9562 259.1787 13.15548033246917
ONEWEB-0228             
1 48780U 21045P   26187.26161242  .00000141  00000+0  34140-3 0  9997
2 48780  87.9007 255.3852 0002026 101.1430 258.9929 13.15548710246832
ONEWEB-0232             
1 48781U 21045Q   26188.14881080 -.00000052  00000+0 -17217-3 0  9994
2 48781  87.9001 255.2090 0002167 100.0894 260.0481 13.15547889247270
ONEWEB-0231             
1 48782U 21045R   26187.21393170 -.00000040  00000+0 -14156-3 0  9996
2 48782  87.8997 255.4072 0002098 105.6966 254.4396 13.15547530246847
ONEWEB-0234             
1 48783U 21045S   26188.16451547  .00000099  00000+0  22979-3 0  9999
2 48783  87.8998 255.2000 0002859  93.3097 266.8360 13.15547295247107
ONEWEB-0238             
1 48784U 21045T   26188.16477957  .00000116  00000+0  27512-3 0  9991
2 48784  87.9001 255.1957 0002470  95.7101 264.4311 13.15548386247006
ONEWEB-0240             
1 48785U 21045U   26188.18604439  .00000153  00000+0  37146-3 0  9996
2 48785  87.9004 255.2009 0002262 105.3352 254.8028 13.15549129247031
ONEWEB-0246             
1 48786U 21045V   26187.26780834  .00000072  00000+0  15748-3 0  9993
2 48786  87.9003 255.3879 0001943 100.3493 259.7856 13.15547521246781
ONEWEB-0210             
1 48787U 21045W   26188.53543029  .00000085  00000+0  19099-3 0  9995
2 48787  87.9001 255.1328 0001543 121.0481 239.0801 13.15548655246993
ONEWEB-0214             
1 48788U 21045X   26188.16384339 -.00000234  00000+0 -65663-3 0  9998
2 48788  87.9000 255.2038 0001703  97.3385 262.7939 13.15547616246911
ONEWEB-0221             
1 48789U 21045Y   26188.17099640  .00000196  00000+0  48594-3 0  9997
2 48789  87.9000 255.2108 0002075 105.4295 254.7065 13.15547770247007
ONEWEB-0213             
1 48790U 21045Z   26188.15990348  .00000074  00000+0  16372-3 0  9996
2 48790  87.9000 255.2160 0001971 107.5034 252.6312 13.15548187247066
ONEWEB-0212             
1 48791U 21045AA  26188.13690654 -.00000097  00000+0 -29057-3 0  9993
2 48791  87.9001 255.2149 0002110  98.8870 261.2499 13.15547103247059
ONEWEB-0227             
1 48792U 21045AB  26187.22344143 -.00000135  00000+0 -39233-3 0  9992
2 48792  87.9001 255.3973 0002065 101.4821 258.6541 13.15547900246885
ONEWEB-0226             
1 48793U 21045AC  26188.12978869 -.00000049  00000+0 -16329-3 0  9996
2 48793  87.8999 255.2212 0001895 105.0025 255.1315 13.15547617246978
ONEWEB-0224             
1 48794U 21045AD  26188.16941352  .00000189  00000+0  46763-3 0  9996
2 48794  87.8990 255.2463 0002923 106.0802 254.0650 13.15548306246904
